NORAD_CAT_ID,OBJECT_NAME,OBJECT_TYPE,EPOCH,MEAN_MOTION,ECCENTRICITY,INCLINATION,RA_OF_ASC_NODE,ARG_OF_PERICENTER,MEAN_ANOMALY,BSTAR,MEAN_MOTION_DOT,MEAN_MOTION_DDOT,TLE_LINE0,TLE_LINE1,TLE_LINE2,SEMIMAJOR_AXIS,PERIOD,APOGEE,PERIGEE,DECAYED
51748.0,STARLINK-3501,PAYLOAD,2023-11-23 13:35:22,15.08828535,0.000149,53.2166,107.1132,71.3903,288.7251,7.7591e-06,-1.64e-06,0.0,0 STARLINK-3501,1 51748U 22016AL  23327.56622706 -.00000164  00000-0  77591-5 0  9993,2 51748  53.2166 107.1132 0001490  71.3903 288.7251 15.08828535 97321,6917.915,95.438,540.811,538.75,0.0
51748.0,STARLINK-3501,PAYLOAD,2023-11-23 16:46:08,15.0880929,0.0001447,53.2166,106.5175,72.7753,287.3397,0.00028596,4.262e-05,0.0,0 STARLINK-3501,1 51748U 22016AL  23327.69871198  .00004262  00000-0  28596-3 0  9999,2 51748  53.2166 106.5175 0001447  72.7753 287.3397 15.08809290 98415,6917.974,95.439,540.84,538.838,0.0
51748.0,STARLINK-3501,PAYLOAD,2023-11-24 08:40:00,15.08829227,0.0001465,53.2171,103.5442,84.3224,275.7935,-7.5998e-05,-1.497e-05,0.0,0 STARLINK-3501,1 51748U 22016AL  23328.36111424 -.00001497  00000-0 -75998-4 0  9991,2 51748  53.2171 103.5442 0001465  84.3224 275.7935 15.08829227 98519,6917.913,95.438,540.792,538.765,0.0
51748.0,STARLINK-3501,PAYLOAD,2023-11-24 13:26:09,15.08858755,0.0001562,53.2176,102.6527,73.5098,286.6065,-0.00044073,-7.299e-05,0.0,0 STARLINK-3501,1 51748U 22016AL  23328.55983029 -.00007299  00000-0 -44073-3 0  9995,2 51748  53.2176 102.6527 0001562  73.5098 286.6065 15.08858755 97472,6917.823,95.436,540.769,538.607,0.0
51748.0,STARLINK-3501,PAYLOAD,2023-11-24 16:36:55,15.08837375,0.0001907,53.2175,102.0579,79.4246,280.6961,-0.00011216,-2.073e-05,0.0,0 STARLINK-3501,1 51748U 22016AL  23328.69231327 -.00002073  00000-0 -11216-3 0  9995,2 51748  53.2175 102.0579 0001907  79.4246 280.6961 15.08837375 98560,6917.888,95.438,541.073,538.434,0.0
51748.0,STARLINK-3501,PAYLOAD,2023-11-25 13:16:55,15.08849012,0.0001483,53.2176,98.1927,81.3589,278.7571,0.00025027,3.698e-05,0.0,0 STARLINK-3501,1 51748U 22016AL  23329.55341636  .00003698  00000-0  25027-3 0  9993,2 51748  53.2176  98.1927 0001483  81.3589 278.7571 15.08849012 97626,6917.853,95.437,540.744,538.692,0.0
51748.0,STARLINK-3501,PAYLOAD,2023-11-25 16:27:40,15.08858515,0.0001747,53.2181,97.5977,69.5547,290.5632,0.00032539,4.897e-05,0.0,0 STARLINK-3501,1 51748U 22016AL  23329.68588955  .00004897  00000-0  32539-3 0  9992,2 51748  53.2181  97.5977 0001747  69.5547 290.5632 15.08858515 97645,6917.824,95.436,540.897,538.48,0.0
51748.0,STARLINK-3501,PAYLOAD,2023-11-26 08:21:32,15.08850333,0.0001336,53.2173,94.6191,125.8851,234.2265,0.00012464,1.697e-05,0.0,0 STARLINK-3501,1 51748U 22016AL  23330.34829424  .00001697  00000-0  12464-3 0  9996,2 51748  53.2173  94.6191 0001336 125.8851 234.2265 15.08850333 98817,6917.849,95.437,540.638,538.79,0.0
51748.0,STARLINK-3501,PAYLOAD,2023-11-26 13:07:41,15.08849132,0.000134,53.2183,93.732,100.4653,259.649,0.00019123,2.758e-05,0.0,0 STARLINK-3501,1 51748U 22016AL  23330.54701255  .00002758  00000-0  19123-3 0  9997,2 51748  53.2183  93.7320 0001340 100.4653 259.6490 15.08849132 97776,6917.852,95.437,540.644,538.79,0.0
51748.0,STARLINK-3501,PAYLOAD,2023-11-26 17:53:50,15.08859488,0.0001346,53.2174,92.8361,108.2778,251.8361,0.00020328,2.95e-05,0.0,0 STARLINK-3501,1 51748U 22016AL  23330.74572391  .00002950  00000-0  20328-3 0  9999,2 51748  53.2174  92.8361 0001346 108.2778 251.8361 15.08859488 98879,6917.821,95.436,540.617,538.755,0.0
51748.0,STARLINK-3501,PAYLOAD,2023-11-27 11:23:07,15.08836972,0.0001553,53.2184,89.5686,83.2237,276.8932,-0.00025238,-4.302e-05,0.0,0 STARLINK-3501,1 51748U 22016AL  23331.47439273 -.00004302  00000-0 -25238-3 0  9991,2 51748  53.2184  89.5686 0001553  83.2237 276.8932 15.08836972 98981,6917.89,95.438,540.829,538.68,0.0
51748.0,STARLINK-3501,PAYLOAD,2023-11-27 14:33:53,15.0883901,0.0001512,53.2183,88.9723,84.5369,275.5795,-0.00024742,-4.223e-05,0.0,0 STARLINK-3501,1 51748U 22016AL  23331.60687093 -.00004223  00000-0 -24742-3 0  9992,2 51748  53.2183  88.9723 0001512  84.5369 275.5795 15.08839010 97933,6917.883,95.438,540.794,538.702,0.0
51748.0,STARLINK-3501,PAYLOAD,2023-11-28 11:13:53,15.08847905,0.0001315,53.218,85.1049,100.879,259.235,-3.7143e-06,-3.47e-06,0.0,0 STARLINK-3501,1 51748U 22016AL  23332.46797798 -.00000347  00000-0 -37143-5 0  9995,2 51748  53.2180  85.1049 0001315 100.8790 259.2350 15.08847905 99133,6917.856,95.437,540.631,538.812,0.0
51748.0,STARLINK-3501,PAYLOAD,2023-11-28 14:24:38,15.08860289,0.0001419,53.218,84.5102,105.1178,254.9971,9.969e-05,1.3e-05,0.0,0 STARLINK-3501,1 51748U 22016AL  23332.60044603  .00001300  00000-0  99690-4 0  9993,2 51748  53.2180  84.5102 0001419 105.1178 254.9971 15.08860289 98083,6917.818,95.436,540.665,538.702,0.0
51748.0,STARLINK-3501,PAYLOAD,2023-11-28 17:35:24,15.08860425,0.0001475,53.2179,83.9149,104.7378,255.3777,9.8345e-05,1.278e-05,0.0,0 STARLINK-3501,1 51748U 22016AL  23332.73292471  .00001278  00000-0  98345-4 0  9995,2 51748  53.2179  83.9149 0001475 104.7378 255.3777 15.08860425 99176,6917.818,95.436,540.703,538.663,0.0
51748.0,STARLINK-3501,PAYLOAD,2023-11-29 12:40:03,15.08863883,0.0001175,53.217,80.351,90.1383,269.9744,0.00049628,7.624e-05,0.0,0 STARLINK-3501,1 51748U 22016AL  23333.52781328  .00007624  00000-0  49628-3 0  9997,2 51748  53.2170  80.3510 0001175  90.1383 269.9744 15.08863883 99290,6917.807,95.436,540.485,538.86,0.0
51748.0,STARLINK-3501,PAYLOAD,2023-11-29 14:15:26,15.08860103,0.0001243,53.2172,80.0518,74.0707,286.0422,0.00045487,6.963e-05,0.0,0 STARLINK-3501,1 51748U 22016AL  23333.59405719  .00006963  00000-0  45487-3 0  9995,2 51748  53.2172  80.0518 0001243  74.0707 286.0422 15.08860103 98232,6917.819,95.436,540.544,538.824,0.0
51748.0,STARLINK-3501,PAYLOAD,2023-11-30 10:55:27,15.08841463,0.0001556,53.2171,76.1848,112.1425,247.9733,-0.000139,-2.5e-05,0.0,0 STARLINK-3501,1 51748U 22016AL  23334.45518287 -.00002500  00000-0 -13900-3 0  9996,2 51748  53.2171  76.1848 0001556 112.1425 247.9733 15.08841463 99433,6917.876,95.437,540.817,538.664,0.0
51748.0,STARLINK-3501,PAYLOAD,2023-12-01 06:00:06,15.08831822,0.0001523,53.2171,72.6166,104.9425,255.1735,5.2728e-05,5.51e-06,0.0,0 STARLINK-3501,1 51748U 22016AL  23335.25007254  .00000551  00000-0  52728-4 0  9996,2 51748  53.2171  72.6166 0001523 104.9425 255.1735 15.08831822 99554,6917.905,95.438,540.824,538.717,0.0
51748.0,STARLINK-3501,PAYLOAD,2023-12-01 12:21:38,15.08840459,0.0001667,53.2173,71.4313,113.21,246.9068,6.7568e-05,7.87e-06,0.0,0 STARLINK-3501,1 51748U 22016AL  23335.51502813  .00000787  00000-0  67568-4 0  9995,2 51748  53.2173  71.4313 0001667 113.2100 246.9068 15.08840459 99596,6917.879,95.438,540.897,538.591,0.0
51748.0,STARLINK-3501,PAYLOAD,2023-12-01 13:57:01,15.08848016,0.0001547,53.2171,71.1327,99.6196,260.4971,0.00011092,1.478e-05,0.0,0 STARLINK-3501,1 51748U 22016AL  23335.58126504  .00001478  00000-0  11092-3 0  9999,2 51748  53.2171  71.1327 0001547  99.6196 260.4971 15.08848016 98539,6917.856,95.437,540.791,538.651,0.0
51748.0,STARLINK-3501,PAYLOAD,2023-12-02 12:12:25,15.08818529,0.0001375,53.2171,66.9709,122.5552,237.5573,-0.0003588,-5.99e-05,0.0,0 STARLINK-3501,1 51748U 22016AL  23336.50862970 -.00005990  00000-0 -35880-3 0  9992,2 51748  53.2171  66.9709 0001375 122.5552 237.5573 15.08818529 99749,6917.946,95.439,540.762,538.86,0.0
51748.0,STARLINK-3501,PAYLOAD,2023-12-02 13:47:49,15.0881075,0.0001235,53.2171,66.6741,91.4492,268.6641,-0.00048975,-8.067e-05,0.0,0 STARLINK-3501,1 51748U 22016AL  23336.57487487 -.00008067  00000-0 -48975-3 0  9992,2 51748  53.2171  66.6741 0001235  91.4492 268.6641 15.08810750 98685,6917.97,95.439,540.689,538.98,0.0
51748.0,STARLINK-3501,PAYLOAD,2023-12-03 13:38:37,15.08821739,0.0001608,53.2175,62.2102,63.0374,297.0782,-1.0877e-05,-4.61e-06,0.0,0 STARLINK-3501,1 51748U 22016AL  23337.56849526 -.00000461  00000-0 -10877-4 0  9999,2 51748  53.2175  62.2102 0001608  63.0374 297.0782 15.08821739 98838,6917.936,95.439,540.914,538.689,0.0
51748.0,STARLINK-3501,PAYLOAD,2023-12-04 11:54:02,15.08839239,0.000226,53.2176,58.055,46.7694,313.3486,0.00071402,0.00011094,0.0,0 STARLINK-3501,1 51748U 22016AL  23338.49585859  .00011094  00000-0  71402-3 0  9990,2 51748  53.2176  58.0550 0002260  46.7694 313.3486 15.08839239100041,6917.883,95.438,541.311,538.184,0.0
51748.0,STARLINK-3501,PAYLOAD,2023-12-05 11:44:47,15.08858904,0.0001603,53.2182,53.5896,74.7537,285.3632,0.00038905,5.912e-05,0.0,0 STARLINK-3501,1 51748U 22016AL  23339.48944056  .00005912  00000-0  38905-3 0  9991,2 51748  53.2182  53.5896 0001603  74.7537 285.3632 15.08858904100195,6917.823,95.436,540.797,538.579,0.0
51748.0,STARLINK-3501,PAYLOAD,2023-12-06 11:35:34,15.08850163,0.0001673,53.2187,49.1332,100.8172,259.3009,-8.5042e-05,-1.642e-05,0.0,0 STARLINK-3501,1 51748U 22016AL  23340.48303505 -.00001642  00000-0 -85042-4 0  9994,2 51748  53.2187  49.1332 0001673 100.8172 259.3009 15.08850163100344,6917.849,95.437,540.872,538.557,0.0
51748.0,STARLINK-3501,PAYLOAD,2023-12-07 05:04:48,15.08839702,0.0001555,53.2183,45.8554,99.2499,260.8669,-0.00014637,-2.617e-05,0.0,0 STARLINK-3501,1 51748U 22016AL  23341.21167696 -.00002617  00000-0 -14637-3 0  9999,2 51748  53.2183  45.8554 0001555  99.2499 260.8669 15.08839702100458,6917.881,95.438,540.822,538.671,0.0
51748.0,STARLINK-3501,PAYLOAD,2023-12-07 11:26:21,15.08847691,0.0001968,53.2189,44.6689,108.2786,251.842,-0.00014204,-2.549e-05,0.0,0 STARLINK-3501,1 51748U 22016AL  23341.47663754 -.00002549  00000-0 -14204-3 0  9997,2 51748  53.2189  44.6689 0001968 108.2786 251.8420 15.08847691 99423,6917.857,95.437,541.083,538.36,0.0
51748.0,STARLINK-3501,PAYLOAD,2023-12-08 09:41:45,15.08835624,0.0001547,53.2189,40.5067,106.921,253.1952,6.3256e-05,7.19e-06,0.0,0 STARLINK-3501,1 51748U 22016AL  23342.40399994  .00000719  00000-0  63256-4 0  9990,2 51748  53.2189  40.5067 0001547 106.9210 253.1952 15.08835624100632,6917.894,95.438,540.829,538.689,0.0
